NORAD_CAT_ID,OBJECT_NAME,OBJECT_TYPE,EPOCH,MEAN_MOTION,ECCENTRICITY,INCLINATION,RA_OF_ASC_NODE,ARG_OF_PERICENTER,MEAN_ANOMALY,BSTAR,MEAN_MOTION_DOT,MEAN_MOTION_DDOT,TLE_LINE0,TLE_LINE1,TLE_LINE2,SEMIMAJOR_AXIS,PERIOD,APOGEE,PERIGEE,DECAYED
52484.0,STARLINK-3887,PAYLOAD,2024-06-12 20:18:07,15.08840082,0.0001468,53.2183,29.039,102.0566,258.059,2.9275e-05,1.78e-06,0.0,0 STARLINK-3887,1 52484U 22049AK  24164.84592398  .00000178  00000-0  29275-4 0  9990,2 52484  53.2183  29.0390 0001468 102.0566 258.0590 15.08840082116574,6917.88,95.438,540.761,538.73,0.0
52484.0,STARLINK-3887,PAYLOAD,2024-06-13 15:22:45,15.08842921,0.0001445,53.2184,25.4778,101.9458,258.1697,-4.1156e-05,-9.43e-06,0.0,0 STARLINK-3887,1 52484U 22049AK  24165.64080114 -.00000943  00000-0 -41156-4 0  9991,2 52484  53.2184  25.4778 0001445 101.9458 258.1697 15.08842921116537,6917.871,95.437,540.736,538.737,0.0
52484.0,STARLINK-3887,PAYLOAD,2024-06-13 20:08:54,15.08845377,0.0001416,53.2182,24.5868,88.406,271.7094,1.7454e-05,-1e-07,0.0,0 STARLINK-3887,1 52484U 22049AK  24165.83951995 -.00000010  00000-0  17454-4 0  9994,2 52484  53.2182  24.5868 0001416  88.4060 271.7094 15.08845377116564,6917.864,95.437,540.709,538.749,0.0
52484.0,STARLINK-3887,PAYLOAD,2024-06-14 13:38:09,15.08838963,0.0001511,53.219,21.3193,99.5827,260.5336,0.00014016,1.943e-05,0.0,0 STARLINK-3887,1 52484U 22049AK  24166.56816316  .00001943  00000-0  14016-3 0  9997,2 52484  53.2190  21.3193 0001511  99.5827 260.5336 15.08838963116679,6917.884,95.438,540.794,538.703,0.0
52484.0,STARLINK-3887,PAYLOAD,2024-06-14 21:35:05,15.08836268,0.0001377,53.2183,19.8315,95.4499,264.6651,4.4434e-05,4.19e-06,0.0,0 STARLINK-3887,1 52484U 22049AK  24166.89936540  .00000419  00000-0  44434-4 0  9990,2 52484  53.2183  19.8315 0001377  95.4499 264.6651 15.08836268116726,6917.892,95.438,540.709,538.804,0.0
52484.0,STARLINK-3887,PAYLOAD,2024-06-15 13:28:56,15.08841004,0.000142,53.2187,16.8576,93.6268,266.4887,7.8629e-05,9.64e-06,0.0,0 STARLINK-3887,1 52484U 22049AK  24167.56176494  .00000964  00000-0  78629-4 0  9997,2 52484  53.2187  16.8576 0001420  93.6268 266.4887 15.08841004116825,6917.877,95.437,540.725,538.76,0.0
52484.0,STARLINK-3887,PAYLOAD,2024-06-15 19:50:28,15.08845225,0.0001373,53.218,15.6677,91.7623,268.3527,0.00011221,1.499e-05,0.0,0 STARLINK-3887,1 52484U 22049AK  24167.82672324  .00001499  00000-0  11221-3 0  9997,2 52484  53.2180  15.6677 0001373  91.7623 268.3527 15.08845225116863,6917.864,95.437,540.679,538.78,0.0
52484.0,STARLINK-3887,PAYLOAD,2024-06-16 06:58:10,15.08842062,0.0001445,53.2172,13.584,77.353,282.7624,0.00014129,1.962e-05,0.0,0 STARLINK-3887,1 52484U 22049AK  24168.29040499  .00001962  00000-0  14129-3 0  9996,2 52484  53.2172  13.5840 0001445  77.3530 282.7624 15.08842062116932,6917.874,95.437,540.739,538.739,0.0
52484.0,STARLINK-3887,PAYLOAD,2024-06-16 21:16:39,15.08842086,0.0001457,53.2179,10.9089,78.7713,281.3443,0.00014385,2.002e-05,0.0,0 STARLINK-3887,1 52484U 22049AK  24168.88656664  .00002002  00000-0  14385-3 0  9998,2 52484  53.2179  10.9089 0001457  78.7713 281.3443 15.08842086117027,6917.874,95.437,540.747,538.731,0.0
52484.0,STARLINK-3887,PAYLOAD,2024-06-17 19:32:03,15.08841833,0.0001457,53.2176,6.7468,81.5444,278.5714,0.00010285,1.349e-05,0.0,0 STARLINK-3887,1 52484U 22049AK  24169.81392723  .00001349  00000-0  10285-3 0  9993,2 52484  53.2176   6.7468 0001457  81.5444 278.5714 15.08841833117164,6917.875,95.437,540.748,538.732,0.0
52484.0,STARLINK-3887,PAYLOAD,2024-06-18 22:33:36,15.08844578,0.0001252,53.2174,1.6895,106.7098,253.4031,0.00011606,1.56e-05,0.0,0 STARLINK-3887,1 52484U 22049AK  24170.94000386  .00001560  00000-0  11606-3 0  9993,2 52484  53.2174   1.6895 0001252 106.7098 253.4031 15.08844578117330,6917.866,95.437,540.598,538.865,0.0
52484.0,STARLINK-3887,PAYLOAD,2024-06-19 19:13:37,15.08838991,0.0001416,53.2183,357.823,95.1058,265.0096,4.6635e-05,4.54e-06,0.0,0 STARLINK-3887,1 52484U 22049AK  24171.80112975  .00000454  00000-0  46635-4 0  9999,2 52484  53.2183 357.8230 0001416  95.1058 265.0096 15.08838991117622,6917.883,95.438,540.728,538.769,0.0
52484.0,STARLINK-3887,PAYLOAD,2024-06-20 12:42:52,15.08834544,0.0001483,53.2187,354.5506,97.6925,262.4236,1.3164e-05,-7.8e-07,0.0,0 STARLINK-3887,1 52484U 22049AK  24172.52977528 -.00000078  00000-0  13164-4 0  9996,2 52484  53.2187 354.5506 0001483  97.6925 262.4236 15.08834544117571,6917.897,95.438,540.788,538.736,0.0
52484.0,STARLINK-3887,PAYLOAD,2024-06-20 17:29:01,15.08835239,0.0001458,53.2191,353.6584,97.5268,262.589,1.2501e-05,-8.9e-07,0.0,0 STARLINK-3887,1 52484U 22049AK  24172.72849510 -.00000089  00000-0  12501-4 0  9993,2 52484  53.2191 353.6584 0001458  97.5268 262.5890 15.08835239117606,6917.895,95.438,540.769,538.751,0.0
52484.0,STARLINK-3887,PAYLOAD,2024-06-21 12:33:39,15.08836196,0.000141,53.2193,350.0969,99.5604,260.5547,5.7951e-05,6.34e-06,0.0,0 STARLINK-3887,1 52484U 22049AK  24173.52337648  .00000634  00000-0  57951-4 0  9999,2 52484  53.2193 350.0969 0001410  99.5604 260.5547 15.08836196117880,6917.892,95.438,540.732,538.782,0.0
52484.0,STARLINK-3887,PAYLOAD,2024-06-21 18:55:11,15.08841803,0.0001422,53.2193,348.9082,101.362,258.7532,0.00010099,1.32e-05,0.0,0 STARLINK-3887,1 52484U 22049AK  24173.78833212  .00001320  00000-0  10099-3 0  9999,2 52484  53.2193 348.9082 0001422 101.3620 258.7532 15.08841803117766,6917.875,95.437,540.724,538.756,0.0
52484.0,STARLINK-3887,PAYLOAD,2024-06-22 12:24:26,15.08837341,0.000139,53.2195,345.6365,96.9845,263.1306,8.8284e-05,1.117e-05,0.0,0 STARLINK-3887,1 52484U 22049AK  24174.51697692  .00001117  00000-0  88284-4 0  9997,2 52484  53.2195 345.6365 0001390  96.9845 263.1306 15.08837341118030,6917.889,95.438,540.715,538.792,0.0
52484.0,STARLINK-3887,PAYLOAD,2024-06-22 20:21:22,15.08840046,0.000135,53.2193,344.1487,91.1605,268.9542,0.00010307,1.353e-05,0.0,0 STARLINK-3887,1 52484U 22049AK  24174.84817551  .00001353  00000-0  10307-3 0  9993,2 52484  53.2193 344.1487 0001350  91.1605 268.9542 15.08840046117922,6917.88,95.438,540.679,538.811,0.0
52484.0,STARLINK-3887,PAYLOAD,2024-06-23 10:39:50,15.0884121,0.0001386,53.2193,341.472,92.6937,267.4214,3.036e-05,1.95e-06,0.0,0 STARLINK-3887,1 52484U 22049AK  24175.44433759  .00000195  00000-0  30360-4 0  9999,2 52484  53.2193 341.4720 0001386  92.6937 267.4214 15.08841210118010,6917.877,95.437,540.701,538.783,0.0
52484.0,STARLINK-3887,PAYLOAD,2024-06-23 18:36:46,15.08842069,0.0001336,53.2192,339.9852,91.7217,268.3929,2.9228e-05,1.77e-06,0.0,0 STARLINK-3887,1 52484U 22049AK  24175.77553651  .00000177  00000-0  29228-4 0  9990,2 52484  53.2192 339.9852 0001336  91.7217 268.3929 15.08842069118222,6917.874,95.437,540.663,538.815,0.0
52484.0,STARLINK-3887,PAYLOAD,2024-06-24 10:30:37,15.08843394,0.0001324,53.2194,337.0118,86.6008,273.5135,5.6696e-05,6.15e-06,0.0,0 STARLINK-3887,1 52484U 22049AK  24176.43793463  .00000615  00000-0  56696-4 0  9997,2 52484  53.2194 337.0118 0001324  86.6008 273.5135 15.08843394118168,6917.87,95.437,540.651,538.819,0.0
52484.0,STARLINK-3887,PAYLOAD,2024-06-24 18:27:32,15.08847242,0.0001378,53.2191,335.5245,82.2894,277.8255,8.3465e-05,1.041e-05,0.0,0 STARLINK-3887,1 52484U 22049AK  24176.76913109  .00001041  00000-0  83465-4 0  9992,2 52484  53.2191 335.5245 0001378  82.2894 277.8255 15.08847242118215,6917.858,95.437,540.677,538.77,0.0
52484.0,STARLINK-3887,PAYLOAD,2024-06-25 16:42:57,15.08842476,0.0001635,53.2191,331.3619,68.282,291.8346,5.8521e-05,6.44e-06,0.0,0 STARLINK-3887,1 52484U 22049AK  24177.69649491  .00000644  00000-0  58521-4 0  9998,2 52484  53.2191 331.3619 0001635  68.2820 291.8346 15.08842476118517,6917.873,95.437,540.869,538.607,0.0
52484.0,STARLINK-3887,PAYLOAD,2024-06-26 03:50:38,15.0884844,0.0001603,53.2188,329.2802,70.4243,289.6922,2.2797e-05,7.5e-07,0.0,0 STARLINK-3887,1 52484U 22049AK  24178.16017070  .00000075  00000-0  22797-4 0  9997,2 52484  53.2188 329.2802 0001603  70.4243 289.6922 15.08848440118424,6917.855,95.437,540.829,538.611,0.0
52484.0,STARLINK-3887,PAYLOAD,2024-06-27 13:13:44,15.08843418,0.0001352,53.2184,323.0347,84.9923,275.1223,3.8559e-05,3.26e-06,0.0,0 STARLINK-3887,1 52484U 22049AK  24179.55121022  .00000326  00000-0  38559-4 0  9996,2 52484  53.2184 323.0347 0001352  84.9923 275.1223 15.08843418118796,6917.87,95.437,540.67,538.8,0.0
52484.0,STARLINK-3887,PAYLOAD,2024-06-27 21:10:39,15.08873972,0.0001272,53.2188,321.5461,81.4772,278.6365,-0.00021141,-3.654e-05,0.0,0 STARLINK-3887,1 52484U 22049AK  24179.88239653 -.00003654  00000-0 -21141-3 0  9999,2 52484  53.2188 321.5461 0001272  81.4772 278.6365 15.08873972118686,6917.777,95.435,540.521,538.762,0.0
52484.0,STARLINK-3887,PAYLOAD,2024-06-28 01:56:50,15.08826605,0.0001627,53.2177,320.6541,82.0439,278.0737,-0.0001008,-1.891e-05,0.0,0 STARLINK-3887,1 52484U 22049AK  24180.08114500 -.00001891  00000-0 -10080-3 0  9997,2 52484  53.2177 320.6541 0001627  82.0439 278.0737 15.08826605118873,6917.921,95.438,540.912,538.661,0.0
52484.0,STARLINK-3887,PAYLOAD,2024-06-28 13:04:31,15.08837558,0.000113,53.2177,318.572,84.1474,275.9647,6.4597e-05,7.4e-06,0.0,0 STARLINK-3887,1 52484U 22049AK  24180.54481385  .00000740  00000-0  64597-4 0  9999,2 52484  53.2177 318.5720 0001130  84.1474 275.9647 15.08837558118942,6917.888,95.438,540.535,538.971,0.0
52484.0,STARLINK-3887,PAYLOAD,2024-06-28 14:39:54,15.08841508,0.0001258,53.2173,318.275,89.269,270.8446,9.0731e-05,1.156e-05,0.0,0 STARLINK-3887,1 52484U 22049AK  24180.61105081  .00001156  00000-0  90731-4 0  9994,2 52484  53.2173 318.2750 0001258  89.2690 270.8446 15.08841508118799,6917.876,95.437,540.611,538.871,0.0
52484.0,STARLINK-3887,PAYLOAD,2024-06-29 01:47:36,15.08851819,0.0001183,53.2166,316.1922,58.7505,301.3602,0.00011433,1.533e-05,0.0,0 STARLINK-3887,1 52484U 22049AK  24181.07472280  .00001533  00000-0  11433-3 0  9993,2 52484  53.2166 316.1922 0001183  58.7505 301.3602 15.08851819119029,6917.844,95.437,540.528,538.891,0.0
